COMMENT,ORIGINATOR,NORAD_CAT_ID,OBJECT_NAME,OBJECT_TYPE,CLASSIFICATION_TYPE,INTLDES,EPOCH,EPOCH_MICROSECONDS,MEAN_MOTION,ECCENTRICITY,INCLINATION,RA_OF_ASC_NODE,ARG_OF_PERICENTER,MEAN_ANOMALY,EPHEMERIS_TYPE,ELEMENT_SET_NO,REV_AT_EPOCH,BSTAR,MEAN_MOTION_DOT,MEAN_MOTION_DDOT,FILE,TLE_LINE0,TLE_LINE1,TLE_LINE2,OBJECT_ID,OBJECT_NUMBER,SEMIMAJOR_AXIS,PERIOD,APOGEE,PERIGEE,DECAYED
"GENERATED VIA SPACETRACK.ORG API","18 SPCS","51110","STARLINK-3344","PAYLOAD","U","22005G","2022-03-30 14:00:01","999872","15.73193989","0.0003405","53.2129","285.4211","10.667","251.6142","0","999","367","0.00036454","0.00050848","0","3380779","0 STARLINK-3344","1 51110U 22005G   22089.58335648  .00050848  00000-0  36454-3 0  9990","2 51110  53.2129 285.4211 0003405  10.6670 251.6142 15.73193989  3679","2022-005G","51110","6727.912","91.534","352.068","347.486","0"
"GENERATED VIA SPACETRACK.ORG API","18 SPCS","51110","STARLINK-3344","PAYLOAD","U","22005G","2022-03-30 20:00:01","224","15.73244944","0.0003633","53.2125","284.1856","9.7317","229.1835","0","999","1246","-0.00052821","-0.00074277","0","3380630","0 STARLINK-3344","1 51110U 22005G   22089.83334491 -.00074277  00000-0 -52821-3 0  9993","2 51110  53.2125 284.1856 0003633   9.7317 229.1835 15.73244944 12460","2022-005G","51110","6727.767","91.531","352.076","347.188","0"
"GENERATED VIA SPACETRACK.ORG API","18 SPCS","51110","STARLINK-3344","PAYLOAD","U","22005G","2022-03-30 22:00:00","999936","15.73212881","0.0003648","53.2125","283.7735","8.981","342.1819","0","999","372","-0.00013312","-0.00019281","0","3380787","0 STARLINK-3344","1 51110U 22005G   22089.91667824 -.00019281  00000-0 -13312-3 0  9997","2 51110  53.2125 283.7735 0003648   8.9810 342.1819 15.73212881  3728","2022-005G","51110","6727.858","91.532","352.178","347.269","0"
"GENERATED VIA SPACETRACK.ORG API","18 SPCS","51110","STARLINK-3344","PAYLOAD","U","22005G","2022-03-31 14:00:01","224","15.73192839","0.0003321","53.2133","280.4643","4.8693","164.1506","0","999","1257","0.00041346","0.000578","0","3381625","0 STARLINK-3344","1 51110U 22005G   22090.58334491  .00057800  00000-0  41346-3 0  9998","2 51110  53.2133 280.4643 0003321   4.8693 164.1506 15.73192839 12579","2022-005G","51110","6727.916","91.534","352.015","347.546","0"
"GENERATED VIA SPACETRACK.ORG API","18 SPCS","51110","STARLINK-3344","PAYLOAD","U","22005G","2022-03-31 14:00:01","224","15.73192839","0.0003321","53.2133","280.4643","4.8693","164.1506","0","999","375","0.00041346","0.000578","0","3381849","0 STARLINK-3344","1 51110U 22005G   22090.58334491  .00057800  00000-0  41346-3 0  9998","2 51110  53.2133 280.4643 0003321   4.8693 164.1506 15.73192839  3759","2022-005G","51110","6727.916","91.534","352.015","347.546","0"
"GENERATED VIA SPACETRACK.ORG API","18 SPCS","51110","STARLINK-3344","PAYLOAD","U","22005G","2022-03-31 22:00:00","999936","15.7310606","0.0003883","53.2153","278.8099","5.9333","252.1279","0","999","1263","-0.0025799","-0.00347013","0","3382104","0 STARLINK-3344","1 51110U 22005G   22090.91667824 -.00347013  00000-0 -25799-2 0  9997","2 51110  53.2153 278.8099 0003883   5.9333 252.1279 15.73106060 12636","2022-005G","51110","6728.163","91.539","352.641","347.415","0"
"GENERATED VIA SPACETRACK.ORG API","18 SPCS","51110","STARLINK-3344","PAYLOAD","U","22005G","2022-03-31 22:00:00","999936","15.7310606","0.0003883","53.2153","278.8099","5.9333","252.1279","0","999","372","-0.0025799","-0.00347013","0","3382347","0 STARLINK-3344","1 51110U 22005G   22090.91667824 -.00347013  00000-0 -25799-2 0  9997","2 51110  53.2153 278.8099 0003883   5.9333 252.1279 15.73106060  3726","2022-005G","51110","6728.163","91.539","352.641","347.415","0"
"GENERATED VIA SPACETRACK.ORG API","18 SPCS","51110","STARLINK-3344","PAYLOAD","U","22005G","2022-04-01 14:00:01","224","15.72570577","0.0003747","53.2178","275.5059","2.8177","72.345","0","999","1273","-0.0057172","-0.00718811","0","3383154","0 STARLINK-3344","1 51110U 22005G   22091.58334491 -.00718811  00000-0 -57172-2 0  9990","2 51110  53.2178 275.5059 0003747   2.8177  72.3450 15.72570577 12735","2022-005G","51110","6729.690","91.570","354.077","349.034","0"
"GENERATED VIA SPACETRACK.ORG API","18 SPCS","51110","STARLINK-3344","PAYLOAD","U","22005G","2022-04-01 14:00:01","224","15.72570577","0.0003747","53.2178","275.5059","2.8177","72.345","0","999","370","-0.0057172","-0.00718811","0","3383353","0 STARLINK-3344","1 51110U 22005G   22091.58334491 -.00718811  00000-0 -57172-2 0  9990","2 51110  53.2178 275.5059 0003747   2.8177  72.3450 15.72570577  3702","2022-005G","51110","6729.690","91.570","354.077","349.034","0"
"GENERATED VIA SPACETRACK.ORG API","18 SPCS","51110","STARLINK-3344","PAYLOAD","U","22005G","2022-04-01 22:00:00","999936","15.72057283","0.0003815","53.2176","273.8628","4.524","158.4975","0","999","367","-0.0057965","-0.00713426","0","3383778","0 STARLINK-3344","1 51110U 22005G   22091.91667824 -.00713426  00000-0 -57965-2 0  9993","2 51110  53.2176 273.8628 0003815   4.5240 158.4975 15.72057283  3677","2022-005G","51110","6731.155","91.600","355.588","350.452","0"
"GENERATED VIA SPACETRACK.ORG API","18 SPCS","51110","STARLINK-3344","PAYLOAD","U","22005G","2022-04-02 14:00:01","999872","15.71039527","0.0004144","53.2176","270.5752","328.6287","8.337","0","999","1289","-0.0060732","-0.00715748","0","3384668","0 STARLINK-3344","1 51110U 22005G   22092.58335648 -.00715748  00000-0 -60732-2 0  9998","2 51110  53.2176 270.5752 0004144 328.6287   8.3370 15.71039527 12892","2022-005G","51110","6734.062","91.659","358.717","353.136","0"
"GENERATED VIA SPACETRACK.ORG API","18 SPCS","51110","STARLINK-3344","PAYLOAD","U","22005G","2022-04-02 22:00:01","999584","15.70535271","0.0004146","53.2174","268.936","304.3361","118.647","0","999","370","-0.0063073","-0.00726721","0","3385473","0 STARLINK-3344","1 51110U 22005G   22092.91668981 -.00726721  00000-0 -63073-2 0  9998","2 51110  53.2174 268.9360 0004146 304.3361 118.6470 15.70535271  3704","2022-005G","51110","6735.503","91.688","360.161","354.576","0"
"GENERATED VIA SPACETRACK.ORG API","18 SPCS","51110","STARLINK-3344","PAYLOAD","U","22005G","2022-04-03 14:00:01","224","15.69504492","0.0002824","53.2178","265.6559","311.9109","281.2138","0","999","1305","-0.0064031","-0.00707754","0","3386217","0 STARLINK-3344","1 51110U 22005G   22093.58334491 -.00707754  00000-0 -64031-2 0  9998","2 51110  53.2178 265.6559 0002824 311.9109 281.2138 15.69504492 13053","2022-005G","51110","6738.452","91.749","362.220","358.414","0"
"GENERATED VIA SPACETRACK.ORG API","18 SPCS","51110","STARLINK-3344","PAYLOAD","U","22005G","2022-04-03 22:00:00","999936","15.68989781","0.0002332","53.2176","264.0201","270.8796","46.4273","0","999","369","-0.0064475","-0.00698228","0","3386965","0 STARLINK-3344","1 51110U 22005G   22093.91667824 -.00698228  00000-0 -64475-2 0  9991","2 51110  53.2176 264.0201 0002332 270.8796  46.4273 15.68989781  3694","2022-005G","51110","6739.926","91.779","363.362","360.219","0"
"GENERATED VIA SPACETRACK.ORG API","18 SPCS","51110","STARLINK-3344","PAYLOAD","U","22005G","2022-04-04 14:00:01","224","15.67982926","0.000156","53.2175","260.7477","25.7854","98.0435","0","999","1320","-0.0069634","-0.00721136","0","3387677","0 STARLINK-3344","1 51110U 22005G   22094.58334491 -.00721136  00000-0 -69634-2 0  9993","2 51110  53.2175 260.7477 0001560  25.7854  98.0435 15.67982926 13209","2022-005G","51110","6742.811","91.838","365.727","363.624","0"
"GENERATED VIA SPACETRACK.ORG API","18 SPCS","51110","STARLINK-3344","PAYLOAD","U","22005G","2022-04-04 14:00:01","224","15.67982926","0.000156","53.2175","260.7477","25.7854","98.0435","0","999","370","-0.0069634","-0.00721136","0","3387897","0 STARLINK-3344","1 51110U 22005G   22094.58334491 -.00721136  00000-0 -69634-2 0  9993","2 51110  53.2175 260.7477 0001560  25.7854  98.0435 15.67982926  3703","2022-005G","51110","6742.811","91.838","365.727","363.624","0"
"GENERATED VIA SPACETRACK.ORG API","18 SPCS","51110","STARLINK-3344","PAYLOAD","U","22005G","2022-04-04 22:00:00","999936","15.6746613","0.0001301","53.2173","259.1156","61.9391","144.2346","0","999","371","-0.006986","-0.00709255","0","3388506","0 STARLINK-3344","1 51110U 22005G   22094.91667824 -.00709255  00000-0 -69860-2 0  9998","2 51110  53.2173 259.1156 0001301  61.9391 144.2346 15.67466130  3718","2022-005G","51110","6744.293","91.868","367.035","365.280","0"
"GENERATED VIA SPACETRACK.ORG API","18 SPCS","51110","STARLINK-3344","PAYLOAD","U","22005G","2022-04-05 14:00:01","999872","15.66344112","0.0001298","53.217","255.8484","64.7875","304.3651","0","999","1336","-0.0059683","-0.00587531","0","3389283","0 STARLINK-3344","1 51110U 22005G   22095.58335648 -.00587531  00000-0 -59683-2 0  9991","2 51110  53.2170 255.8484 0001298  64.7875 304.3651 15.66344112 13369","2022-005G","51110","6747.513","91.934","370.254","368.502","0"
"GENERATED VIA SPACETRACK.ORG API","18 SPCS","51110","STARLINK-3344","PAYLOAD","U","22005G","2022-04-05 14:00:01","999872","15.66344112","0.0001298","53.217","255.8484","64.7875","304.3651","0","999","366","-0.0059683","-0.00587531","0","3389439","0 STARLINK-3344","1 51110U 22005G   22095.58335648 -.00587531  00000-0 -59683-2 0  9991","2 51110  53.2170 255.8484 0001298  64.7875 304.3651 15.66344112  3661","2022-005G","51110","6747.513","91.934","370.254","368.502","0"
"GENERATED VIA SPACETRACK.ORG API","18 SPCS","51110","STARLINK-3344","PAYLOAD","U","22005G","2022-04-05 22:00:00","999936","15.6593841","0.0001261","53.2174","254.222","52.1945","37.3322","0","999","1341","-0.0074705","-0.00712426","0","3389742","0 STARLINK-3344","1 51110U 22005G   22095.91667824 -.00712426  00000-0 -74705-2 0  9997","2 51110  53.2174 254.2220 0001261  52.1945  37.3322 15.65938410 13416","2022-005G","51110","6748.678","91.958","371.394","369.692","0"
